STARLINK-30573          
1 58058U 23158H   26068.24978116  .00001415  00000+0  60948-4 0  9996
2 58058  43.0041  29.4484 0001533 272.0241  88.0435 15.27573073133501
OTTER                   
1 62623U 25009Q   26068.72300813  .00012198  00000+0  45151-3 0  9990
2 62623  97.4065 151.3812 0003573 310.7710  49.3219 15.27809545 63722
